437P/PANSTARRS,e,3.6897,245.8688,206.7046,4.558358,0.1012725,0.25406308,339.8071,01/31.0/2022,2000,g 13.0,4.0
# From MPEC 2021-W47
438P/Christensen,e,8.2885,260.1564,58.9334,3.846699,0.1306387,0.41580213,86.9572,01/31.0/2022,2000,g 14.5,4.0
# From MPEC 2021-X81
439P/LINEAR,e,7.1144,56.4181,341.9928,3.487341,0.1513431,0.46945132,23.8979,01/31.0/2022,2000,g 17.2,4.0
# From MPEC 2021-AG4
440P/Kobayashi,e,12.3396,328.8822,183.3201,8.584157,0.0391884,0.76046234,357.7289,01/31.0/2022,2000,g 15.0,2.0
# From MPC107687
1I/`Oumuamua,h,09/09.4886/2017,122.6778,24.5997,241.6845,1.199252,0.255240,2000,23.0,2.0
# From MPEC 2020-K19
2I/Borisov,h,12/08.5549/2019,44.0527,308.1480,209.1251,3.356636,2.006548,2000,11.0,4.0
